{
  "norad_id": 62901,
  "name": "LEGION 6",
  "history": [
    {
      "epoch": "2026-03-28T12:34:49.152000",
      "apogee_km": 524.7569337016421,
      "perigee_km": 515.1285939672807,
      "latitude_deg": 37.77393038441257,
      "longitude_deg": 160.421280000126,
      "semi_major_axis_km": 6898.079763834461,
      "eccentricity": 0.0006979,
      "inclination_deg": 45.0004,
      "raan_deg": 282.913,
      "arg_perigee_deg": 18.3831,
      "mean_anomaly_deg": 341.7299,
      "mean_motion_rev_day": 15.15341245
    },
    {
      "epoch": "2026-03-28T12:34:49.156320",
      "apogee_km": 524.7575710161127,
      "perigee_km": 515.1306090468643,
      "latitude_deg": 37.7739499504984,
      "longitude_deg": 160.42128480016254,
      "semi_major_axis_km": 6898.081090031488,
      "eccentricity": 0.0006978,
      "inclination_deg": 45.0004,
      "raan_deg": 282.913,
      "arg_perigee_deg": 18.3859,
      "mean_anomaly_deg": 341.7271,
      "mean_motion_rev_day": 15.15340808
    }
  ]
}